ZHONGXING-19            
1 54230U 22148A   26204.78722468 -.00000076  00000+0  00000+0 0  9991
2 54230   0.0149  82.9455 0003414  55.4323 249.7227  1.00272549 13745
GALAXY 31 (G-31)        
1 54243U 22153A   26204.60934703  .00000000  00000+0  00000+0 0  9995
2 54243   0.0184  69.6315 0001516  54.6669 275.4098  1.00270196  7493
GALAXY 32 (G-32)        
1 54244U 22153B   26204.80802477 -.00000169  00000+0  00000+0 0  9997
2 54244   0.0100  52.5893 0001524   6.5204  82.3183  1.00272150 13516
EUTELSAT 10B            
1 54259U 22157A   26204.25787578  .00000073  00000+0  00000+0 0  9993
2 54259   0.0591  96.4178 0001937 358.9583 308.4009  1.00272096 13384
GALAXY 35 (G-35)        
1 54741U 22170A   26204.80776477  .00000000  00000+0  00000+0 0  9991
2 54741   0.0145  62.0636 0002177  60.1841  16.9816  1.00269646 13260
GALAXY 36 (G-36)        
1 54742U 22170B   26204.80845810 -.00000180  00000+0  00000+0 0  9990
2 54742   0.0227 121.2277 0002796 340.0494  42.3022  1.00272077 13143
METEOSAT-12 (MTG-I1)    
1 54743U 22170C   26204.88030727 -.00000004  00000+0  00000+0 0  9997
2 54743   0.7337  21.1444 0004190  81.2138 155.7518  1.00270266 13345
SHIJIAN-23 (SJ-23)      
1 55131U 23002A   26203.52822448 -.00000358  00000+0  00000+0 0  9995
2 55131   3.8057  77.8677 0003374 277.0595 259.4329  1.00073931 12869
APSTAR-6E               
1 55239U 23005A   26204.92396350 -.00000312  00000+0  00000+0 0  9990
2 55239   0.0521 239.1980 0002706 310.3345 218.7592  1.00273811 19052
USA 342                 
1 55263U 23008A   26200.33994240  .00000000  00000+0  00000+0 0  9996
2 55263   0.0047  62.4879 0000215 103.9152 276.9334  1.00270942 12832
ELEKTRO-L 4             
1 55506U 23016A   26204.70221308 -.00000054  00000+0  00000+0 0  9998
2 55506   0.1001 279.4446 0001657 260.3065 180.2378  1.00271064 12690
AMAZONAS NEXUS          
1 55508U 23017A   26204.74282119 -.00000277  00000+0  00000+0 0  9999
2 55508   0.0352  45.9154 0004554  45.8415  56.1210  1.00270086  7419
ZHONGXING-26            
1 55686U 23023A   26204.28066921 -.00000349  00000+0  00000+0 0  9993
2 55686   0.0608  72.0610 0003516  31.7010  63.3607  1.00267097 12593
LUCH-5X (OLYMP-K 2)     
1 55841U 23031A   26203.41262308  .00000036  00000+0  00000+0 0  9998
2 55841   0.0266  95.1545 0001404 179.4046 236.1308  1.00271960 12291
GAOFEN-13 02            
1 55912U 23036A   26204.61502973 -.00000213  00000+0  00000+0 0  9998
2 55912   1.0306   5.6010 0003436 339.5852 325.8648  1.00273301 12452
SES-18                  
1 55970U 23038A   26204.59189176 -.00000096  00000+0  00000+0 0  9996
2 55970   0.0600 259.5460 0001101 288.2972 223.4550  1.00272256 12465
SES-19                  
1 55971U 23038B   26204.58556507  .00000092  00000+0  00000+0 0  9997
2 55971   0.0385 279.6605 0001923 202.9854 254.5791  1.00274438 12459
INTELSAT 40E (IS-40E)   
1 56174U 23052A   26204.80802477 -.00000169  00000+0  00000+0 0  9990
2 56174   0.0153  91.3684 0002536  51.0416 359.0130  1.00272333 12193
VIASAT-3 F1             
1 56370U 23060A   26203.81046544 -.00000182  00000+0  00000+0 0  9997
2 56370   0.0071  14.7978 0000560  88.8033  39.8173  1.00272039 11791
ARCTURUS                
1 56371U 23060B   26204.84774509 -.00000357  00000+0  00000+0 0  9995
2 56371   2.8654  79.4806 0001506 134.8858 141.4157  1.00590488 11822
GS-1                    
1 56372U 23060C   26204.07212676 -.00000218  00000+0  00000+0 0  9999
2 56372   2.8146  79.4006 0003262 278.2018  58.3060  1.00264609  7897
BEIDOU-3 G4             
1 56564U 23066A   26204.85389846 -.00000275  00000+0  00000+0 0  9991
2 56564   0.4541 341.3855 0005190 182.2775 225.3731  1.00270272 11767
ARABSAT-7B (BADR-8)     
1 56757U 23075A   26204.86364249  .00000150  00000+0  00000+0 0  9997
2 56757   0.0731  30.4215 0003385   5.8545 242.2218  1.00272902 11482
NVS-01 (IRNSS-1J)       
1 56759U 23076A   26204.85181845 -.00000329  00000+0  00000+0 0  9997
2 56759   2.0821 242.6774 0002914  16.6899 118.3867  1.00275034 11484
NUSANTARA TIGA (SATRIA) 
1 57045U 23086A   26204.56996500 -.00000230  00000+0  00000+0 0  9998
2 57045   0.0364  15.9252 0002070 314.4971 322.0601  1.00269331 10121
H2SAT (HEINRICH HERTZ)  
1 57213U 23093A   26204.61243185  .00000007  00000+0  00000+0 0  9994
2 57213   0.0270 105.6822 0000743 232.6551 184.1888  1.00272596 11283
SYRACUSE 4B             
1 57214U 23093B   26204.82490419 -.00000049  00000+0  00000+0 0  9999
2 57214   0.0180  62.4620 0000124  96.1043  73.4835  1.00271723  7336
JUPITER 3 (ECHOSTAR 24) 
1 57479U 23108A   26204.42787826 -.00000145  00000+0  00000+0 0  9993
2 57479   0.0151  54.6076 0001104  66.7128 238.6791  1.00271958 11006
GALAXY 37 (G-37)        
1 57493U 23112A   26204.60416300  .00000053  00000+0  00000+0 0  9997
2 57493   0.0150  65.8309 0002137  49.6886 276.3119  1.00271728 10908
LUDI TANCE-4 01A        
1 57624U 23120A   26203.60240101 -.00000168  00000+0  00000+0 0  9993
2 57624  15.0824 193.0909 0001705  10.1521  43.5828  1.00275057 10907
TJS-10                  
1 58204U 23169A   26203.49009676 -.00000248  00000+0  00000+0 0  9997
2 58204   2.6328  80.0686 0004128 111.4129  17.6036  1.00272313  9892
ZHONGXING-6E            
1 58253U 23172A   26204.08100338 -.00000357  00000+0  00000+0 0  9999
2 58253   0.0514 246.3651 0003046 226.3469 332.7426  1.00268384 10018
YAOGAN-41               
1 58582U 23197A   26204.70808635 -.00000353  00000+0  00000+0 0  9991
2 58582   3.0635 313.7196 0014155 200.1410 165.6631  1.00273562  9699
OVZON-3                 
1 58698U 24003A   26204.83795171  .00000056  00000+0  00000+0 0  9999
2 58698   0.0200 149.0152 0000234 293.2241 220.6722  1.00273709  7810
INSAT-3DS               
1 58990U 24033A   26204.84245840 -.00000151  00000+0  00000+0 0  9998
2 58990   0.0702 261.7061 0001280 217.0954 208.1041  1.00273491 47435
MERAH PUTIH 2           
1 58995U 24035A   26204.84852509 -.00000353  00000+0  00000+0 0  9995
2 58995   0.0163  77.6216 0001281  38.2231 244.1422  1.00270718  8955
TJS-11                  
1 59020U 24037A   26204.84843844 -.00000353  00000+0  00000+0 0  9999
2 59020   4.1520 327.5415 0002164 159.7184 232.3274  1.00270620  8958
HULIANWAN GAOGUI-01 (H*)
1 59069U 24040A   26204.26255580  .00000160  00000+0  00000+0 0  9991
2 59069   0.0753 332.8067 0001654  77.1966  19.1378  1.00271574  7695
EUTELSAT 36D            
1 59346U 24059A   26204.54809816  .00000000  00000+0  00000+0 0  9990
2 59346   0.0245  61.2060 0000139  35.4304  77.8112  1.00270188  8514
PAKSAT-MM1              
1 59915U 24104A   26204.86364249  .00000159  00000+0  00000+0 0  9999
2 59915   0.0305 166.3769 0002297 295.2290 189.1506  1.00275973  7894
ASTRA 1P (SES-24)       
1 60086U 24115A   26204.11710375  .00000124  00000+0  00000+0 0  9997
2 60086   0.0671 323.7661 0001164 247.1895 151.2508  1.00268700  7555
GOES 19                 
1 60133U 24119A   26204.52617139 -.00000244  00000+0  00000+0 0  9997
2 60133   0.0205 124.2755 0000325  46.6739 244.5382  1.00272112  7329
ZHONGXING-3A            
1 60179U 24122A   26203.77701194 -.00000309  00000+0  00000+0 0  9994
2 60179   0.0306 139.3053 0001619  19.7453 162.7656  1.00271192  7669
TURKSAT 6A              
1 60233U 24127A   26202.83848117  .00000149  00000+0  00000+0 0  9994
2 60233   0.0444 216.7267 0003146 310.1163 116.5770  1.00274233  7363
HULIANWAN GAOGUI-02 (H*)
1 60327U 24135A   26203.44625211 -.00000170  00000+0  00000+0 0  9998
2 60327   0.0479 358.6429 0005894  13.0934 242.1466  1.00274738  7850
ZHONGXING-4A            
1 60606U 24151A   26204.84956512 -.00000356  00000+0  00000+0 0  9998
2 60606   1.2218 270.3914 0000115 248.6389 206.6128  1.00271480  7125
HULIANWAN GAOGUI-03 (H*)
1 61503U 24181A   26203.89812196 -.00000237  00000+0  00000+0 0  9999
2 61503   0.0529   1.4631 0001533  86.3948  98.9604  1.00275075  7187
DSN-3 (KIRAMEKI-3)      
1 61733U 24198A   26204.85467846 -.00000245  00000+0  00000+0 0  9996
2 61733   0.0198 291.4015 0001232 208.9589 252.9552  1.00270499  6289
KOREASAT 6A             
1 61910U 24206A   26204.84913176 -.00000357  00000+0  00000+0 0  9998
2 61910   0.0044 225.9831 0001093 224.4978 272.8042  1.00272008  6209
OPTUS-X (ADS-01)        
1 62006U 24212A   26204.78583801 -.00000138  00000+0  00000+0 0  9990
2 62006   0.0394 264.3817 0002523 235.7920 240.6447  1.00271890  6127
GSAT-N2 (GSAT-20)       
1 62028U 24214A   26204.83959839 -.00000014  00000+0  00000+0 0  9993
2 62028   0.0568 256.4822 0002712 157.3979 257.8846  1.00273287  6265
SXM-9                   
1 62259U 24234A   26204.31033499 -.00000200  00000+0  00000+0 0  9996
2 62259   0.0146 351.4562 0004645 329.3108   6.8217  1.00270897  5933
TJS-12                  
1 62374U 24246A   26203.85715061 -.00000228  00000+0  00000+0 0  9997
2 62374   0.5955 303.0087 0001953 105.5609 347.0341  1.00267847  5926
NUVIEW ALPHA            
1 62455U 24252B   26204.52452471 -.00000210  00000+0  00000+0 0  9993
2 62455   0.0390  16.1130 0000936  64.2611 326.6038  1.00271467  4185
AGILA                   
1 62456U 24252C   26204.81001564 -.00000177  00000+0  00000+0 0  9991
2 62456   0.0423 211.0594 0001601 277.4959 256.7412  1.00271066  5529
NUVIEW BRAVO            
1 62457U 24252D   26204.52452471 -.00000210  00000+0  00000+0 0  9995
2 62457   0.0675 170.1923 0001909 336.4608 260.3331  1.00272830  4157
THURAYA-4               
1 62483U 25001A   26204.35669890  .00000144  00000+0  00000+0 0  9998
2 62483   0.0199  76.9748 0000330  62.7418 334.0969  1.00272811  4548
SHIJIAN-25 (SJ-25)      
1 62485U 25002A   26203.56829690 -.00000350  00000+0  00000+0 0  9999
2 62485   5.1950  60.9361 0050731 176.6753  34.4537  1.00275607  5710
TJS-14                  
1 62804U 25017A   26204.86919735  .00000121  00000+0  00000+0 0  9999
2 62804   0.7024 298.4593 0001811 300.4006  33.9968  1.00271637  5638
SPAINSAT NG I           
1 62852U 25021A   26204.54679816  .00000156  00000+0  00000+0 0  9993
2 62852   0.0154  53.7160 0000309  27.6166  85.7683  1.00271605  4358
